ONEWEB-0197             
1 48236U 21031AC  26063.18387695 -.00000070  00000+0 -22316-3 0  9999
2 48236  87.8998 310.6393 0001552  69.3341 290.7955 13.14502306234391
ONEWEB-0194             
1 48237U 21031AD  26063.23951953 -.00000101  00000+0 -30687-3 0  9995
2 48237  87.9000 310.6457 0001462  85.8019 274.3278 13.14501840234571
ONEWEB-0193             
1 48238U 21031AE  26063.17925572 -.00000161  00000+0 -46838-3 0  9998
2 48238  87.8999 310.6496 0001266  91.0220 269.1055 13.14503036234514
ONEWEB-0191             
1 48239U 21031AF  26063.19035728  .00000046  00000+0  90060-4 0  9993
2 48239  87.8999 310.6428 0001574  78.9023 281.2284 13.14502242234378
ONEWEB-0195             
1 48240U 21031AG  26063.24348260 -.00000147  00000+0 -43206-3 0  9992
2 48240  87.8999 310.6292 0002022  84.5368 275.5992 13.14502240234362
ONEWEB-0201             
1 48241U 21031AH  26063.23172943  .00000006  00000+0 -17305-4 0  9990
2 48241  87.8990 310.6604 0001830  72.4492 287.6837 13.14502726234597
ONEWEB-0207             
1 48242U 21031AJ  26063.21178129  .00000208  00000+0  52636-3 0  9999
2 48242  87.8998 310.6359 0001765  72.2611 287.8711 13.14503753234506
ONEWEB-0208             
1 48243U 21031AK  26063.19352797  .00000084  00000+0  19323-3 0  9990
2 48243  87.8998 310.6519 0001885  84.6159 275.5186 13.14503147234510
ONEWEB-0200             
1 48244U 21031AL  26063.23317421 -.00000034  00000+0 -12683-3 0  9990
2 48244  87.8998 310.6330 0001760  79.5908 280.5420 13.14501487234443
ONEWEB-0217             
1 48245U 21031AM  26063.24903370 -.00000192  00000+0 -55119-3 0  9992
2 48245  87.8999 310.6293 0001964  84.9698 275.1655 13.14502716234395
ONEWEB-0211             
1 48767U 21045A   26063.35876428  .00000148  00000+0  35516-3 0  9999
2 48767  87.8948 280.0357 0001949  98.1690 261.9662 13.16143516230658
ONEWEB-0223             
1 48768U 21045B   26063.15809288 -.00000032  00000+0 -11811-3 0  9994
2 48768  87.8955 280.1557 0001757 101.9466 258.1861 13.15547658230597
ONEWEB-0230             
1 48769U 21045C   26063.50986149  .00000151  00000+0  36751-3 0  9996
2 48769  87.8942 280.1092 0001468  85.1108 275.0190 13.15547219230904
ONEWEB-0237             
1 48770U 21045D   26063.04242030  .00000225  00000+0  56302-3 0  9997
2 48770  87.8942 280.2044 0001543  98.0625 262.0681 13.15547458230563
ONEWEB-0235             
1 48771U 21045E   26063.09312487 -.00000010  00000+0 -61654-4 0  9998
2 48771  87.8955 280.1697 0001693 103.9344 256.1975 13.15547823230567
ONEWEB-0242             
1 48772U 21045F   26063.08678548 -.00000017  00000+0 -80433-4 0  9994
2 48772  87.8953 280.1666 0001467  93.1129 267.0169 13.15547481230603
ONEWEB-0241             
1 48773U 21045G   26063.15017175 -.00000016  00000+0 -75834-4 0  9994
2 48773  87.8945 280.1839 0001868  97.4522 262.6820 13.15547771230524
