[{"OBJECT_NAME":"ONEWEB-0197","OBJECT_ID":"2021-031AC","EPOCH":"2026-03-04T04:24:46.968480","MEAN_MOTION":13.14502306,"ECCENTRICITY":0.0001552,"INCLINATION":87.8998,"RA_OF_ASC_NODE":310.6393,"ARG_OF_PERICENTER":69.3341,"MEAN_ANOMALY":290.7955,"EPHEMERIS_TYPE":0,"CLASSIFICATION_TYPE":"U","NORAD_CAT_ID":48236,"ELEMENT_SET_NO":999,"REV_AT_EPOCH":23439,"BSTAR":-0.00022316,"MEAN_MOTION_DOT":-7.0e-7,"MEAN_MOTION_DDOT":0},{"OBJECT_NAME":"ONEWEB-0194","OBJECT_ID":"2021-031AD","EPOCH":"2026-03-04T05:44:54.487392","MEAN_MOTION":13.1450184,"ECCENTRICITY":0.0001462,"INCLINATION":87.9,"RA_OF_ASC_NODE":310.6457,"ARG_OF_PERICENTER":85.8019,"MEAN_ANOMALY":274.3278,"EPHEMERIS_TYPE":0,"CLASSIFICATION_TYPE":"U","NORAD_CAT_ID":48237,"ELEMENT_SET_NO":999,"REV_AT_EPOCH":23457,"BSTAR":-0.00030687,"MEAN_MOTION_DOT":-1.01e-6,"MEAN_MOTION_DDOT":0},{"OBJECT_NAME":"ONEWEB-0193","OBJECT_ID":"2021-031AE","EPOCH":"2026-03-04T04:18:07.694208","MEAN_MOTION":13.14503036,"ECCENTRICITY":0.0001266,"INCLINATION":87.8999,"RA_OF_ASC_NODE":310.6496,"ARG_OF_PERICENTER":91.022,"MEAN_ANOMALY":269.1055,"EPHEMERIS_TYPE":0,"CLASSIFICATION_TYPE":"U","NORAD_CAT_ID":48238,"ELEMENT_SET_NO":999,"REV_AT_EPOCH":23451,"BSTAR":-0.00046838,"MEAN_MOTION_DOT":-1.61e-6,"MEAN_MOTION_DDOT":0},{"OBJECT_NAME":"ONEWEB-0191","OBJECT_ID":"2021-031AF","EPOCH":"2026-03-04T04:34:06.868992","MEAN_MOTION":13.14502242,"ECCENTRICITY":0.0001574,"INCLINATION":87.8999,"RA_OF_ASC_NODE":310.6428,"ARG_OF_PERICENTER":78.9023,"MEAN_ANOMALY":281.2284,"EPHEMERIS_TYPE":0,"CLASSIFICATION_TYPE":"U","NORAD_CAT_ID":48239,"ELEMENT_SET_NO":999,"REV_AT_EPOCH":23437,"BSTAR":9.006e-5,"MEAN_MOTION_DOT":4.6e-7,"MEAN_MOTION_DDOT":0},{"OBJECT_NAME":"ONEWEB-0195","OBJECT_ID":"2021-031AG","EPOCH":"2026-03-04T05:50:36.896640","MEAN_MOTION":13.1450224,"ECCENTRICITY":0.0002022,"INCLINATION":87.8999,"RA_OF_ASC_NODE":310.6292,"ARG_OF_PERICENTER":84.5368,"MEAN_ANOMALY":275.5992,"EPHEMERIS_TYPE":0,"CLASSIFICATION_TYPE":"U","NORAD_CAT_ID":48240,"ELEMENT_SET_NO":999,"REV_AT_EPOCH":23436,"BSTAR":-0.00043206,"MEAN_MOTION_DOT":-1.47e-6,"MEAN_MOTION_DDOT":0},{"OBJECT_NAME":"ONEWEB-0201","OBJECT_ID":"2021-031AH","EPOCH":"2026-03-04T05:33:41.422752","MEAN_MOTION":13.14502726,"ECCENTRICITY":0.000183,"INCLINATION":87.899,"RA_OF_ASC_NODE":310.6604,"ARG_OF_PERICENTER":72.4492,"MEAN_ANOMALY":287.6837,"EPHEMERIS_TYPE":0,"CLASSIFICATION_TYPE":"U","NORAD_CAT_ID":48241,"ELEMENT_SET_NO":999,"REV_AT_EPOCH":23459,"BSTAR":-1.7305e-5,"MEAN_MOTION_DOT":6.0e-8,"MEAN_MOTION_DDOT":0},{"OBJECT_NAME":"ONEWEB-0207","OBJECT_ID":"2021-031AJ","EPOCH":"2026-03-04T05:04:57.903456","MEAN_MOTION":13.14503753,"ECCENTRICITY":0.0001765,"INCLINATION":87.8998,"RA_OF_ASC_NODE":310.6359,"ARG_OF_PERICENTER":72.2611,"MEAN_ANOMALY":287.8711,"EPHEMERIS_TYPE":0,"CLASSIFICATION_TYPE":"U","NORAD_CAT_ID":48242,"ELEMENT_SET_NO":999,"REV_AT_EPOCH":23450,"BSTAR":0.00052636,"MEAN_MOTION_DOT":2.08e-6,"MEAN_MOTION_DDOT":0},{"OBJECT_NAME":"ONEWEB-0208","OBJECT_ID":"2021-031AK","EPOCH":"2026-03-04T04:38:40.816608","MEAN_MOTION":13.14503147,"ECCENTRICITY":0.0001885,"INCLINATION":87.8998,"RA_OF_ASC_NODE":310.6519,"ARG_OF_PERICENTER":84.6159,"MEAN_ANOMALY":275.5186,"EPHEMERIS_TYPE":0,"CLASSIFICATION_TYPE":"U","NORAD_CAT_ID":48243,"ELEMENT_SET_NO":999,"REV_AT_EPOCH":23451,"BSTAR":0.00019323,"MEAN_MOTION_DOT":8.4e-7,"MEAN_MOTION_DDOT":0},{"OBJECT_NAME":"ONEWEB-0200","OBJECT_ID":"2021-031AL","EPOCH":"2026-03-04T05:35:46.251744","MEAN_MOTION":13.14501487,"ECCENTRICITY":0.000176,"INCLINATION":87.8998,"RA_OF_ASC_NODE":310.633,"ARG_OF_PERICENTER":79.5908,"MEAN_ANOMALY":280.542,"EPHEMERIS_TYPE":0,"CLASSIFICATION_TYPE":"U","NORAD_CAT_ID":48244,"ELEMENT_SET_NO":999,"REV_AT_EPOCH":23444,"BSTAR":-0.00012683,"MEAN_MOTION_DOT":-3.4e-7,"MEAN_MOTION_DDOT":0},{"OBJECT_NAME":"ONEWEB-0217","OBJECT_ID":"2021-031AM","EPOCH":"2026-03-04T05:58:36.511680","MEAN_MOTION":13.14502716,"ECCENTRICITY":0.0001964,"INCLINATION":87.8999,"RA_OF_ASC_NODE":310.6293,"ARG_OF_PERICENTER":84.9698,"MEAN_ANOMALY":275.1655,"EPHEMERIS_TYPE":0,"CLASSIFICATION_TYPE":"U","NORAD_CAT_ID":48245,"ELEMENT_SET_NO":999,"REV_AT_EPOCH":23439,"BSTAR":-0.00055119,"MEAN_MOTION_DOT":-1.92e-6,"MEAN_MOTION_DDOT":0},{"OBJECT_NAME":"ONEWEB-0211","OBJECT_ID":"2021-045A","EPOCH":"2026-03-04T08:36:37.233792","MEAN_MOTION":13.16143516,"ECCENTRICITY":0.0001949,"INCLINATION":87.8948,"RA_OF_ASC_NODE":280.0357,"ARG_OF_PERICENTER":98.169,"MEAN_ANOMALY":261.9662,"EPHEMERIS_TYPE":0,"CLASSIFICATION_TYPE":"U","NORAD_CAT_ID":48767,"ELEMENT_SET_NO":999,"REV_AT_EPOCH":23065,"BSTAR":0.00035516,"MEAN_MOTION_DOT":1.48e-6,"MEAN_MOTION_DDOT":0},{"OBJECT_NAME":"ONEWEB-0223","OBJECT_ID":"2021-045B","EPOCH":"2026-03-04T03:47:39.224832","MEAN_MOTION":13.15547658,"ECCENTRICITY":0.0001757,"INCLINATION":87.8955,"RA_OF_ASC_NODE":280.1557,"ARG_OF_PERICENTER":101.9466,"MEAN_ANOMALY":258.1861,"EPHEMERIS_TYPE":0,"CLASSIFICATION_TYPE":"U","NORAD_CAT_ID":48768,"ELEMENT_SET_NO":999,"REV_AT_EPOCH":23059,"BSTAR":-0.00011811,"MEAN_MOTION_DOT":-3.2e-7,"MEAN_MOTION_DDOT":0},{"OBJECT_NAME":"ONEWEB-0230","OBJECT_ID":"2021-045C","EPOCH":"2026-03-04T12:14:12.032736","MEAN_MOTION":13.15547219,"ECCENTRICITY":0.0001468,"INCLINATION":87.8942,"RA_OF_ASC_NODE":280.1092,"ARG_OF_PERICENTER":85.1108,"MEAN_ANOMALY":275.019,"EPHEMERIS_TYPE":0,"CLASSIFICATION_TYPE":"U","NORAD_CAT_ID":48769,"ELEMENT_SET_NO":999,"REV_AT_EPOCH":23090,"BSTAR":0.00036751,"MEAN_MOTION_DOT":1.51e-6,"MEAN_MOTION_DDOT":0},{"OBJECT_NAME":"ONEWEB-0237","OBJECT_ID":"2021-045D","EPOCH":"2026-03-04T01:01:05.113920","MEAN_MOTION":13.15547458,"ECCENTRICITY":0.0001543,"INCLINATION":87.8942,"RA_OF_ASC_NODE":280.2044,"ARG_OF_PERICENTER":98.0625,"MEAN_ANOMALY":262.0681,"EPHEMERIS_TYPE":0,"CLASSIFICATION_TYPE":"U","NORAD_CAT_ID":48770,"ELEMENT_SET_NO":999,"REV_AT_EPOCH":23056,"BSTAR":0.00056302,"MEAN_MOTION_DOT":2.25e-6,"MEAN_MOTION_DDOT":0},{"OBJECT_NAME":"ONEWEB-0235","OBJECT_ID":"2021-045E","EPOCH":"2026-03-04T02:14:05.988768","MEAN_MOTION":13.15547823,"ECCENTRICITY":0.0001693,"INCLINATION":87.8955,"RA_OF_ASC_NODE":280.1697,"ARG_OF_PERICENTER":103.9344,"MEAN_ANOMALY":256.1975,"EPHEMERIS_TYPE":0,"CLASSIFICATION_TYPE":"U","NORAD_CAT_ID":48771,"ELEMENT_SET_NO":999,"REV_AT_EPOCH":23056,"BSTAR":-6.1654e-5,"MEAN_MOTION_DOT":-1.0e-7,"MEAN_MOTION_DDOT":0},{"OBJECT_NAME":"ONEWEB-0242","OBJECT_ID":"2021-045F","EPOCH":"2026-03-04T02:04:58.265472","MEAN_MOTION":13.15547481,"ECCENTRICITY":0.0001467,"INCLINATION":87.8953,"RA_OF_ASC_NODE":280.1666,"ARG_OF_PERICENTER":93.1129,"MEAN_ANOMALY":267.0169,"EPHEMERIS_TYPE":0,"CLASSIFICATION_TYPE":"U","NORAD_CAT_ID":48772,"ELEMENT_SET_NO":999,"REV_AT_EPOCH":23060,"BSTAR":-8.0433e-5,"MEAN_MOTION_DOT":-1.7e-7,"MEAN_MOTION_DDOT":0},{"OBJECT_NAME":"ONEWEB-0241","OBJECT_ID":"2021-045G","EPOCH":"2026-03-04T03:36:14.839200","MEAN_MOTION":13.15547771,"ECCENTRICITY":0.0001868,"INCLINATION":87.8945,"RA_OF_ASC_NODE":280.1839,"ARG_OF_PERICENTER":97.4522,"MEAN_ANOMALY":262.682,"EPHEMERIS_TYPE":0,"CLASSIFICATION_TYPE":"U","NORAD_CAT_ID":48773,"ELEMENT_SET_NO":999,"REV_AT_EPOCH":23052,"BSTAR":-7.5834e-5,"MEAN_MOTION_DOT":-1.6e-7,"MEAN_MOTION_DDOT":0}]
